{"type": "FeatureCollection", "features": [ {"type": "Feature", "properties": {"norad_id": 36260, "name": "FENGYUN 1C DEB", "group": "fengyun-1c-debris", "lat": -8.747559720027088, "lon": -178.67838999539765, "alt_km": 834.4404416762745, "timestamp": "2025-12-26T21:25:53.298782+00:00", "meta": {"OBJECT_NAME": "FENGYUN 1C DEB", "OBJECT_ID": "1999-025DWM", "EPOCH": "2025-12-24T19:20:24.734112", "MEAN_MOTION": 14.15381135, "ECCENTRICITY": 0.00153864, "INCLINATION": 98.6615, "RA_OF_ASC_NODE": 0.6385, "ARG_OF_PERICENTER": 213.0221, "MEAN_ANOMALY": 146.9994, "EPHEMERIS_TYPE": 0, "CLASSIFICATION_TYPE": "U", "NORAD_CAT_ID": 36260, "ELEMENT_SET_NO": 999, "REV_AT_EPOCH": 87979, "BSTAR": 0.00015734209, "MEAN_MOTION_DOT": 2.64e-06, "MEAN_MOTION_DDOT": 0}, "tle": {"line1": "1 36260U 99025DWM 25358.80584183  .00000264  00000+0  15734-3 0  9996", "line2": "2 36260  98.6615   0.6385 0015386 213.0221 146.9994 14.15381135879794"}}, "geometry": {"type": "Point", "coordinates": [-178.67838999539765, -8.747559720027088]}}, {"type": "Feature", "properties": {"norad_id": 36261, "name": "FENGYUN 1C DEB", "group": "fengyun-1c-debris", "lat": -7.429068726776167, "lon": -103.52421478362523, "alt_km": 915.924345042934, "timestamp": "2025-12-26T21:25:53.298792+00:00", "meta": {"OBJECT_NAME": "FENGYUN 1C DEB", "OBJECT_ID": "1999-025DWN", "EPOCH": "2025-12-24T23:04:08.652864", "MEAN_MOTION": 13.45492576, "ECCENTRICITY": 0.03558493, "INCLINATION": 101.3651, "RA_OF_ASC_NODE": 252.7857, "ARG_OF_PERICENTER": 46.9112, "MEAN_ANOMALY": 316.1219, "EPHEMERIS_TYPE": 0, "CLASSIFICATION_TYPE": "U", "NORAD_CAT_ID": 36261, "ELEMENT_SET_NO": 999, "REV_AT_EPOCH": 84597, "BSTAR": 0.0006499036, "MEAN_MOTION_DOT": 5.11e-06, "MEAN_MOTION_DDOT": 0}, "tle": {"line1": "1 36261U 99025DWN 25358.96121126  .00000511  00000+0  64990-3 0  9991", "line2": "2 36261 101.3651 252.7857 0355849  46.9112 316.1219 13.45492576845972"}}, "geometry": {"type": "Point", "coordinates": [-103.52421478362523, -7.429068726776167]}}, {"type": "Feature", "properties": {"norad_id": 36262, "name": "FENGYUN 1C DEB", "group": "fengyun-1c-debris", "lat": -73.92454311455526, "lon": 28.564577456278187, "alt_km": 766.6761040909596, "timestamp": "2025-12-26T21:25:53.298803+00:00", "meta": {"OBJECT_NAME": "FENGYUN 1C DEB", "OBJECT_ID": "1999-025DWP", "EPOCH": "2025-12-24T22:49:21.024192", "MEAN_MOTION": 14.27822117, "ECCENTRICITY": 0.0059764, "INCLINATION": 98.9607, "RA_OF_ASC_NODE": 239.7712, "ARG_OF_PERICENTER": 239.4919, "MEAN_ANOMALY": 120.0352, "EPHEMERIS_TYPE": 0, "CLASSIFICATION_TYPE": "U", "NORAD_CAT_ID": 36262, "ELEMENT_SET_NO": 999, "REV_AT_EPOCH": 89671, "BSTAR": 0.00026973, "MEAN_MOTION_DOT": 6.33e-06, "MEAN_MOTION_DDOT": 0}, "tle": {"line1": "1 36262U 99025DWP 25358.95093778  .00000633  00000+0  26973-3 0  9996", "line2": "2 36262  98.9607 239.7712 0059764 239.4919 120.0352 14.27822117896718"}}, "geometry": {"type": "Point", "coordinates": [28.564577456278187, -73.92454311455526]}}, {"type": "Feature", "properties": {"norad_id": 36263, "name": "FENGYUN 1C DEB", "group": "fengyun-1c-debris", "lat": -75.68736484940582, "lon": 24.400840071910423, "alt_km": 726.4304663899657, "timestamp": "2025-12-26T21:25:53.298813+00:00", "meta": {"OBJECT_NAME": "FENGYUN 1C DEB", "OBJECT_ID": "1999-025DWQ", "EPOCH": "2025-12-24T21:43:53.936832", "MEAN_MOTION": 14.45786448, "ECCENTRICITY": 0.0035498, "INCLINATION": 98.9986, "RA_OF_ASC_NODE": 240.6907, "ARG_OF_PERICENTER": 227.7393, "MEAN_ANOMALY": 132.0784, "EPHEMERIS_TYPE": 0, "CLASSIFICATION_TYPE": "U", "NORAD_CAT_ID": 36263, "ELEMENT_SET_NO": 999, "REV_AT_EPOCH": 88161, "BSTAR": 0.0018996, "MEAN_MOTION_DOT": 6.745e-05, "MEAN_MOTION_DDOT": 0}, "tle": {"line1": "1 36263U 99025DWQ 25358.90548538  .00006745  00000+0  18996-2 0  9996", "line2": "2 36263  98.9986 240.6907 0035498 227.7393 132.0784 14.45786448881611"}}, "geometry": {"type": "Point", "coordinates": [24.400840071910423, -75.68736484940582]}}, {"type": "Feature", "properties": {"norad_id": 36267, "name": "FENGYUN 1C DEB", "group": "fengyun-1c-debris", "lat": 52.00916081451813, "lon": -63.53687692936585, "alt_km": 897.806537467688, "timestamp": "2025-12-26T21:25:53.298823+00:00", "meta": {"OBJECT_NAME": "FENGYUN 1C DEB", "OBJECT_ID": "1999-025DWU", "EPOCH": "2025-12-24T08:32:51.428256", "MEAN_MOTION": 14.09131706, "ECCENTRICITY": 0.01263202, "INCLINATION": 98.5603, "RA_OF_ASC_NODE": 305.1713, "ARG_OF_PERICENTER": 176.9466, "MEAN_ANOMALY": 335.4349, "EPHEMERIS_TYPE": 0, "CLASSIFICATION_TYPE": "U", "NORAD_CAT_ID": 36267, "ELEMENT_SET_NO": 999, "REV_AT_EPOCH": 86693, "BSTAR": 0.00070779992, "MEAN_MOTION_DOT": 1.282e-05, "MEAN_MOTION_DDOT": 0}, "tle": {"line1": "1 36267U 99025DWU 25358.35615079  .00001282  00000+0  70780-3 0  9995", "line2": "2 36267  98.5603 305.1713 0126320 176.9466 335.4349 14.09131706866935"}}, "geometry": {"type": "Point", "coordinates": [-63.53687692936585, 52.00916081451813]}}, {"type": "Feature", "properties": {"norad_id": 36269, "name": "FENGYUN 1C DEB", "group": "fengyun-1c-debris", "lat": 2.8820209606762046, "lon": -57.01694402161209, "alt_km": 894.8499645358315, "timestamp": "2025-12-26T21:25:53.298835+00:00", "meta": {"OBJECT_NAME": "FENGYUN 1C DEB", "OBJECT_ID": "1999-025DWW", "EPOCH": "2025-12-14T01:28:51.707712", "MEAN_MOTION": 14.27043075, "ECCENTRICITY": 0.02331074, "INCLINATION": 99.1079, "RA_OF_ASC_NODE": 290.0784, "ARG_OF_PERICENTER": 275.9651, "MEAN_ANOMALY": 81.5008, "EPHEMERIS_TYPE": 0, "CLASSIFICATION_TYPE": "U", "NORAD_CAT_ID": 36269, "ELEMENT_SET_NO": 999, "REV_AT_EPOCH": 87735, "BSTAR": 0.00079666975, "MEAN_MOTION_DOT": 2.532e-05, "MEAN_MOTION_DDOT": 0}, "tle": {"line1": "1 36269U 99025DWW 25348.06170958  .00002532  00000+0  79667-3 0  9998", "line2": "2 36269  99.1079 290.0784 0233107 275.9651  81.5008 14.27043075877359"}}, "geometry": {"type": "Point", "coordinates": [-57.01694402161209, 2.8820209606762046]}}, {"type": "Feature", "properties": {"norad_id": 36272, "name": "FENGYUN 1C DEB", "group": "fengyun-1c-debris", "lat": -49.629044850373425, "lon": -111.51332094380257, "alt_km": 821.5610719622227, "timestamp": "2025-12-26T21:25:53.298846+00:00", "meta": {"OBJECT_NAME": "FENGYUN 1C DEB", "OBJECT_ID": "1999-025DWZ", "EPOCH": "2025-12-15T09:29:34.780416", "MEAN_MOTION": 14.17259115, "ECCENTRICITY": 0.01679127, "INCLINATION": 99.1362, "RA_OF_ASC_NODE": 225.7589, "ARG_OF_PERICENTER": 260.5869, "MEAN_ANOMALY": 97.6289, "EPHEMERIS_TYPE": 0, "CLASSIFICATION_TYPE": "U", "NORAD_CAT_ID": 36272, "ELEMENT_SET_NO": 999, "REV_AT_EPOCH": 63654, "BSTAR": 0.00052291356, "MEAN_MOTION_DOT": 1.164e-05, "MEAN_MOTION_DDOT": 0}, "tle": {"line1": "1 36272U 99025DWZ 25349.39554144  .00001164  00000+0  52291-3 0  9996", "line2": "2 36272  99.1362 225.7589 0167912 260.5869  97.6289 14.17259115636543"}}, "geometry": {"type": "Point", "coordinates": [-111.51332094380257, -49.629044850373425]}}, {"type": "Feature", "properties": {"norad_id": 36273, "name": "FENGYUN 1C DEB", "group": "fengyun-1c-debris", "lat": -73.33932145087076, "lon": 16.996347304286527, "alt_km": 801.797877982327, "timestamp": "2025-12-26T21:25:53.298858+00:00", "meta": {"OBJECT_NAME": "FENGYUN 1C DEB", "OBJECT_ID": "1999-025DXA", "EPOCH": "2025-12-10T21:07:00.418080", "MEAN_MOTION": 14.16564043, "ECCENTRICITY": 0.0096501, "INCLINATION": 99.6045, "RA_OF_ASC_NODE": 214.1863, "ARG_OF_PERICENTER": 353.8475, "MEAN_ANOMALY": 6.1504, "EPHEMERIS_TYPE": 0, "CLASSIFICATION_TYPE": "U", "NORAD_CAT_ID": 36273, "ELEMENT_SET_NO": 999, "REV_AT_EPOCH": 66207, "BSTAR": 0.00042955, "MEAN_MOTION_DOT": 8.45e-06, "MEAN_MOTION_DDOT": 0}, "tle": {"line1": "1 36273U 99025DXA 25344.87986595  .00000845  00000+0  42955-3 0  9995", "line2": "2 36273  99.6045 214.1863 0096501 353.8475   6.1504 14.16564043662078"}}, "geometry": {"type": "Point", "coordinates": [16.996347304286527, -73.33932145087076]}}, {"type": "Feature", "properties": {"norad_id": 36274, "name": "FENGYUN 1C DEB", "group": "fengyun-1c-debris", "lat": -80.27595714298012, "lon": -174.33324821255405, "alt_km": 808.6995021234361, "timestamp": "2025-12-26T21:25:53.298868+00:00", "meta": {"OBJECT_NAME": "FENGYUN 1C DEB", "OBJECT_ID": "1999-025DXB", "EPOCH": "2025-12-24T23:29:20.675328", "MEAN_MOTION": 14.23624847, "ECCENTRICITY": 0.00631497, "INCLINATION": 99.1381, "RA_OF_ASC_NODE": 73.6094, "ARG_OF_PERICENTER": 196.6447, "MEAN_ANOMALY": 343.9967, "EPHEMERIS_TYPE": 0, "CLASSIFICATION_TYPE": "U", "NORAD_CAT_ID": 36274, "ELEMENT_SET_NO": 999, "REV_AT_EPOCH": 63159, "BSTAR": 0.0030627834, "MEAN_MOTION_DOT": 7.085e-05, "MEAN_MOTION_DDOT": 0}, "tle": {"line1": "1 36274U 99025DXB 25358.97871152  .00007085  00000+0  30628-2 0  9990", "line2": "2 36274  99.1381  73.6094 0063149 196.6447 343.9967 14.23624847631590"}}, "geometry": {"type": "Point", "coordinates": [-174.33324821255405, -80.27595714298012]}}, {"type": "Feature", "properties": {"norad_id": 36278, "name": "FENGYUN 1C DEB", "group": "fengyun-1c-debris", "lat": -0.16854304802913958, "lon": 99.53308331839713, "alt_km": 822.124832659837, "timestamp": "2025-12-26T21:25:53.298878+00:00", "meta": {"OBJECT_NAME": "FENGYUN 1C DEB", "OBJECT_ID": "1999-025DXF", "EPOCH": "2025-12-25T12:23:20.936256", "MEAN_MOTION": 14.17404058, "ECCENTRICITY": 0.0060493, "INCLINATION": 99.1253, "RA_OF_ASC_NODE": 278.1472, "ARG_OF_PERICENTER": 254.2677, "MEAN_ANOMALY": 105.1819, "EPHEMERIS_TYPE": 0, "CLASSIFICATION_TYPE": "U", "NORAD_CAT_ID": 36278, "ELEMENT_SET_NO": 999, "REV_AT_EPOCH": 93657, "BSTAR": 0.0004649, "MEAN_MOTION_DOT": 9.11e-06, "MEAN_MOTION_DDOT": 0}, "tle": {"line1": "1 36278U 99025DXF 25359.51621454  .00000911  00000+0  46490-3 0  9999", "line2": "2 36278  99.1253 278.1472 0060493 254.2677 105.1819 14.17404058936572"}}, "geometry": {"type": "Point", "coordinates": [99.53308331839713, -0.16854304802913958]}}]}